[
  {
    "OBJECT_NAME": "STARLINK-3458",
    "OBJECT_ID": "22016AW",
    "EPOCH": "2025-11-10T18:03:02.246976",
    "MEAN_MOTION": 15.08843018,
    "ECCENTRICITY": 0.0001447,
    "INCLINATION": 53.2154,
    "RA_OF_ASC_NODE": 123.0019,
    "ARG_OF_PERICENTER": 89.9595,
    "MEAN_ANOMALY": 270.1563,
    "EPHEMERIS_TYPE": 0,
    "CLASSIFICATION_TYPE": "U",
    "NORAD_CAT_ID": 51758,
    "ELEMENT_SET_NO": 999,
    "REV_AT_EPOCH": 20689,
    "BSTAR": 2.9159000000000003e-05,
    "MEAN_MOTION_DOT": 1.76e-06,
    "MEAN_MOTION_DDOT": 0.0,
    "TLE_LINE1": "1 51758U 22016AW  25314.75210934  .00000176  00000+0  29159-4 0  9996",
    "TLE_LINE2": "2 51758  53.2154 123.0019 0001447  89.9595 270.1563 15.08843018206892",
    "COMMENT": "Grouped by shell and plane from TLE"
  },
  {
    "OBJECT_NAME": "STARLINK-3456",
    "OBJECT_ID": "22016AX",
    "EPOCH": "2025-11-10T11:46:48.296928",
    "MEAN_MOTION": 15.08841677,
    "ECCENTRICITY": 0.0001447,
    "INCLINATION": 53.216,
    "RA_OF_ASC_NODE": 124.224,
    "ARG_OF_PERICENTER": 82.3126,
    "MEAN_ANOMALY": 277.8031,
    "EPHEMERIS_TYPE": 0,
    "CLASSIFICATION_TYPE": "U",
    "NORAD_CAT_ID": 51759,
    "ELEMENT_SET_NO": 999,
    "REV_AT_EPOCH": 20571,
    "BSTAR": 6.427500000000001e-06,
    "MEAN_MOTION_DOT": -1.86e-06,
    "MEAN_MOTION_DDOT": 0.0,
    "TLE_LINE1": "1 51759U 22016AX  25314.49083677 -.00000186  00000+0  64275-5 0  9991",
    "TLE_LINE2": "2 51759  53.2160 124.2240 0001447  82.3126 277.8031 15.08841677205719",
    "COMMENT": "Grouped by shell and plane from TLE"
  },
  {
    "OBJECT_NAME": "STARLINK-5003",
    "OBJECT_ID": "22119V",
    "EPOCH": "2025-11-11T04:46:16.853952",
    "MEAN_MOTION": 15.08843165,
    "ECCENTRICITY": 0.0001268,
    "INCLINATION": 53.2137,
    "RA_OF_ASC_NODE": 126.2645,
    "ARG_OF_PERICENTER": 94.3099,
    "MEAN_ANOMALY": 265.8038,
    "EPHEMERIS_TYPE": 0,
    "CLASSIFICATION_TYPE": "U",
    "NORAD_CAT_ID": 53905,
    "ELEMENT_SET_NO": 999,
    "REV_AT_EPOCH": 17393,
    "BSTAR": 6.4574e-05,
    "MEAN_MOTION_DOT": 7.4e-06,
    "MEAN_MOTION_DDOT": 0.0,
    "TLE_LINE1": "1 53905U 22119V   25315.19880618  .00000740  00000+0  64574-4 0  9994",
    "TLE_LINE2": "2 53905  53.2137 126.2645 0001268  94.3099 265.8038 15.08843165173938",
    "COMMENT": "Grouped by shell and plane from TLE"
  },
  {
    "OBJECT_NAME": "STARLINK-5054",
    "OBJECT_ID": "22119W",
    "EPOCH": "2025-11-11T05:12:41.159520",
    "MEAN_MOTION": 15.0884406,
    "ECCENTRICITY": 0.0001463,
    "INCLINATION": 53.2154,
    "RA_OF_ASC_NODE": 125.6804,
    "ARG_OF_PERICENTER": 86.9138,
    "MEAN_ANOMALY": 273.2022,
    "EPHEMERIS_TYPE": 0,
    "CLASSIFICATION_TYPE": "U",
    "NORAD_CAT_ID": 53906,
    "ELEMENT_SET_NO": 999,
    "REV_AT_EPOCH": 17394,
    "BSTAR": 6.7646e-05,
    "MEAN_MOTION_DOT": 7.89e-06,
    "MEAN_MOTION_DDOT": 0.0,
    "TLE_LINE1": "1 53906U 22119W   25315.21714305  .00000789  00000+0  67646-4 0  9993",
    "TLE_LINE2": "2 53906  53.2154 125.6804 0001463  86.9138 273.2022 15.08844060173948",
    "COMMENT": "Grouped by shell and plane from TLE"
  },
  {
    "OBJECT_NAME": "STARLINK-5057",
    "OBJECT_ID": "22119Y",
    "EPOCH": "2025-11-10T20:38:44.538144",
    "MEAN_MOTION": 15.08837191,
    "ECCENTRICITY": 0.0001862,
    "INCLINATION": 53.2097,
    "RA_OF_ASC_NODE": 127.7052,
    "ARG_OF_PERICENTER": 94.7812,
    "MEAN_ANOMALY": 265.3393,
    "EPHEMERIS_TYPE": 0,
    "CLASSIFICATION_TYPE": "U",
    "NORAD_CAT_ID": 53908,
    "ELEMENT_SET_NO": 999,
    "REV_AT_EPOCH": 17388,
    "BSTAR": 1.8622e-05,
    "MEAN_MOTION_DOT": 8e-08,
    "MEAN_MOTION_DDOT": 0.0,
    "TLE_LINE1": "1 53908U 22119Y   25314.86023771  .00000008  00000+0  18622-4 0  9999",
    "TLE_LINE2": "2 53908  53.2097 127.7052 0001862  94.7812 265.3393 15.08837191173886",
    "COMMENT": "Grouped by shell and plane from TLE"
  },
  {
    "OBJECT_NAME": "STARLINK-4796",
    "OBJECT_ID": "22119Z",
    "EPOCH": "2025-11-11T04:51:34.897536",
    "MEAN_MOTION": 15.0884377,
    "ECCENTRICITY": 0.0001365,
    "INCLINATION": 53.2163,
    "RA_OF_ASC_NODE": 126.2895,
    "ARG_OF_PERICENTER": 89.9951,
    "MEAN_ANOMALY": 270.1198,
    "EPHEMERIS_TYPE": 0,
    "CLASSIFICATION_TYPE": "U",
    "NORAD_CAT_ID": 53909,
    "ELEMENT_SET_NO": 999,
    "REV_AT_EPOCH": 17393,
    "BSTAR": 6.9339e-05,
    "MEAN_MOTION_DOT": 8.16e-06,
    "MEAN_MOTION_DDOT": 0.0,
    "TLE_LINE1": "1 53909U 22119Z   25315.20248724  .00000816  00000+0  69339-4 0  9994",
    "TLE_LINE2": "2 53909  53.2163 126.2895 0001365  89.9951 270.1198 15.08843770173931",
    "COMMENT": "Grouped by shell and plane from TLE"
  },
  {
    "OBJECT_NAME": "STARLINK-5048",
    "OBJECT_ID": "22119AB",
    "EPOCH": "2025-11-10T22:19:25.636512",
    "MEAN_MOTION": 15.08844653,
    "ECCENTRICITY": 0.0001613,
    "INCLINATION": 53.2145,
    "RA_OF_ASC_NODE": 127.4339,
    "ARG_OF_PERICENTER": 86.6028,
    "MEAN_ANOMALY": 273.5148,
    "EPHEMERIS_TYPE": 0,
    "CLASSIFICATION_TYPE": "U",
    "NORAD_CAT_ID": 53911,
    "ELEMENT_SET_NO": 999,
    "REV_AT_EPOCH": 17389,
    "BSTAR": 8.2263e-05,
    "MEAN_MOTION_DOT": 1.022e-05,
    "MEAN_MOTION_DDOT": 0.0,
    "TLE_LINE1": "1 53911U 22119AB  25314.93015783  .00001022  00000+0  82263-4 0  9994",
    "TLE_LINE2": "2 53911  53.2145 127.4339 0001613  86.6028 273.5148 15.08844653173893",
    "COMMENT": "Grouped by shell and plane from TLE"
  },
  {
    "OBJECT_NAME": "STARLINK-5059",
    "OBJECT_ID": "22119AC",
    "EPOCH": "2025-11-11T05:02:04.289568",
    "MEAN_MOTION": 15.08847052,
    "ECCENTRICITY": 0.0001514,
    "INCLINATION": 53.2153,
    "RA_OF_ASC_NODE": 125.6354,
    "ARG_OF_PERICENTER": 90.1866,
    "MEAN_ANOMALY": 269.9299,
    "EPHEMERIS_TYPE": 0,
    "CLASSIFICATION_TYPE": "U",
    "NORAD_CAT_ID": 53912,
    "ELEMENT_SET_NO": 999,
    "REV_AT_EPOCH": 17394,
    "BSTAR": 0.00010546,
    "MEAN_MOTION_DOT": 1.391e-05,
    "MEAN_MOTION_DDOT": 0.0,
    "TLE_LINE1": "1 53912U 22119AC  25315.20977187  .00001391  00000+0  10546-3 0  9994",
    "TLE_LINE2": "2 53912  53.2153 125.6354 0001514  90.1866 269.9299 15.08847052173948",
    "COMMENT": "Grouped by shell and plane from TLE"
  },
  {
    "OBJECT_NAME": "STARLINK-5053",
    "OBJECT_ID": "22119AD",
    "EPOCH": "2025-11-10T20:17:31.210368",
    "MEAN_MOTION": 15.08836041,
    "ECCENTRICITY": 0.0001456,
    "INCLINATION": 53.2155,
    "RA_OF_ASC_NODE": 127.6175,
    "ARG_OF_PERICENTER": 86.7467,
    "MEAN_ANOMALY": 273.3692,
    "EPHEMERIS_TYPE": 0,
    "CLASSIFICATION_TYPE": "U",
    "NORAD_CAT_ID": 53913,
    "ELEMENT_SET_NO": 999,
    "REV_AT_EPOCH": 17388,
    "BSTAR": 5.5715000000000004e-05,
    "MEAN_MOTION_DOT": 5.99e-06,
    "MEAN_MOTION_DDOT": 0.0,
    "TLE_LINE1": "1 53913U 22119AD  25314.84550012  .00000599  00000+0  55715-4 0  9995",
    "TLE_LINE2": "2 53913  53.2155 127.6175 0001456  86.7467 273.3692 15.08836041173882",
    "COMMENT": "Grouped by shell and plane from TLE"
  },
  {
    "OBJECT_NAME": "STARLINK-5040",
    "OBJECT_ID": "22119AE",
    "EPOCH": "2025-11-10T21:47:35.933856",
    "MEAN_MOTION": 15.08837857,
    "ECCENTRICITY": 0.0001391,
    "INCLINATION": 53.2165,
    "RA_OF_ASC_NODE": 127.3019,
    "ARG_OF_PERICENTER": 88.3999,
    "MEAN_ANOMALY": 271.7153,
    "EPHEMERIS_TYPE": 0,
    "CLASSIFICATION_TYPE": "U",
    "NORAD_CAT_ID": 53914,
    "ELEMENT_SET_NO": 999,
    "REV_AT_EPOCH": 17389,
    "BSTAR": 6.7946e-05,
    "MEAN_MOTION_DOT": 7.94e-06,
    "MEAN_MOTION_DDOT": 0.0,
    "TLE_LINE1": "1 53914U 22119AE  25314.90805479  .00000794  00000+0  67946-4 0  9999",
    "TLE_LINE2": "2 53914  53.2165 127.3019 0001391  88.3999 271.7153 15.08837857173895",
    "COMMENT": "Grouped by shell and plane from TLE"
  },
  {
    "OBJECT_NAME": "STARLINK-5017",
    "OBJECT_ID": "22119AF",
    "EPOCH": "2025-11-11T04:30:21.538656",
    "MEAN_MOTION": 15.08842535,
    "ECCENTRICITY": 0.0001301,
    "INCLINATION": 53.2194,
    "RA_OF_ASC_NODE": 126.2,
    "ARG_OF_PERICENTER": 92.336,
    "MEAN_ANOMALY": 267.7781,
    "EPHEMERIS_TYPE": 0,
    "CLASSIFICATION_TYPE": "U",
    "NORAD_CAT_ID": 53915,
    "ELEMENT_SET_NO": 999,
    "REV_AT_EPOCH": 17393,
    "BSTAR": 0.00010814,
    "MEAN_MOTION_DOT": 1.434e-05,
    "MEAN_MOTION_DDOT": 0.0,
    "TLE_LINE1": "1 53915U 22119AF  25315.18774929  .00001434  00000+0  10814-3 0  9999",
    "TLE_LINE2": "2 53915  53.2194 126.2000 0001301  92.3360 267.7781 15.08842535173930",
    "COMMENT": "Grouped by shell and plane from TLE"
  },
  {
    "OBJECT_NAME": "STARLINK-5036",
    "OBJECT_ID": "22119AH",
    "EPOCH": "2025-11-10T18:47:27.036384",
    "MEAN_MOTION": 15.08825291,
    "ECCENTRICITY": 0.0001165,
    "INCLINATION": 53.2151,
    "RA_OF_ASC_NODE": 127.9378,
    "ARG_OF_PERICENTER": 85.752,
    "MEAN_ANOMALY": 274.3605,
    "EPHEMERIS_TYPE": 0,
    "CLASSIFICATION_TYPE": "U",
    "NORAD_CAT_ID": 53917,
    "ELEMENT_SET_NO": 999,
    "REV_AT_EPOCH": 17387,
    "BSTAR": 0.00013325,
    "MEAN_MOTION_DOT": 1.833e-05,
    "MEAN_MOTION_DDOT": 0.0,
    "TLE_LINE1": "1 53917U 22119AH  25314.78295181  .00001833  00000+0  13325-3 0  9997",
    "TLE_LINE2": "2 53917  53.2151 127.9378 0001165  85.7520 274.3605 15.08825291173875",
    "COMMENT": "Grouped by shell and plane from TLE"
  },
  {
    "OBJECT_NAME": "STARLINK-5012",
    "OBJECT_ID": "22119AJ",
    "EPOCH": "2025-11-11T04:03:51.579072",
    "MEAN_MOTION": 15.08829422,
    "ECCENTRICITY": 0.0001395,
    "INCLINATION": 53.2142,
    "RA_OF_ASC_NODE": 126.086,
    "ARG_OF_PERICENTER": 91.098,
    "MEAN_ANOMALY": 269.0172,
    "EPHEMERIS_TYPE": 0,
    "CLASSIFICATION_TYPE": "U",
    "NORAD_CAT_ID": 53918,
    "ELEMENT_SET_NO": 999,
    "REV_AT_EPOCH": 17393,
    "BSTAR": 0.00011099,
    "MEAN_MOTION_DOT": 1.478e-05,
    "MEAN_MOTION_DDOT": 0.0,
    "TLE_LINE1": "1 53918U 22119AJ  25315.16934698  .00001478  00000+0  11099-3 0  9995",
    "TLE_LINE2": "2 53918  53.2142 126.0860 0001395  91.0980 269.0172 15.08829422173934",
    "COMMENT": "Grouped by shell and plane from TLE"
  }
]